O3B MPOWER F1           
1 54755U 22174A   23360.45934251 -.00000023  00000+0  00000+0 0  9993
2 54755   0.0567  15.3082 0006027 272.9820 111.9045  5.00118429 20137
